OBJECT_NAME,OBJECT_ID,EPOCH,MEAN_MOTION,ECCENTRICITY,INCLINATION,RA_OF_ASC_NODE,ARG_OF_PERICENTER,MEAN_ANOMALY,EPHEMERIS_TYPE,CLASSIFICATION_TYPE,NORAD_CAT_ID,ELEMENT_SET_NO,REV_AT_EPOCH,BSTAR,MEAN_MOTION_DOT,MEAN_MOTION_DDOT
QIANFAN-210,2026-153K,2026-07-21T13:45:40.084704,14.17626608,.00147101,88.9925,358.3153,173.7647,186.3727,0,U,69809,999,245,-.11212197E+1,-.2104282E-1,0
QIANFAN-211,2026-153L,2026-07-21T13:44:35.365920,14.20224166,.00079068,88.9929,358.3145,157.1281,203.0263,0,U,69810,999,245,.29323809E-4,.77E-6,0
QIANFAN-212,2026-153M,2026-07-21T13:35:48.293088,14.20819522,.00090401,88.9931,358.3137,161.9335,198.2178,0,U,69811,999,245,.30315817E-4,.8E-6,0
QIANFAN-213,2026-153N,2026-07-17T21:48:21.510720,14.21939575,.00078274,88.9917,358.7338,155.5754,204.5809,0,U,69812,999,193,-.9822754E+0,-.2004805E-1,0
QIANFAN-214,2026-153P,2026-07-21T13:23:24.137664,14.25492071,.0008625,88.9929,358.3124,162.6131,197.5359,0,U,69813,999,245,.32023837E-4,.9E-6,0
QIANFAN-215,2026-153Q,2026-07-21T13:20:30.527232,14.26680018,.00086352,88.9928,358.3118,164.4954,195.6506,0,U,69814,999,245,.32301374E-4,.93E-6,0
QIANFAN-216,2026-153R,2026-07-21T13:20:29.300352,14.26677160,.00088701,88.9929,358.3121,164.7989,195.3473,0,U,69815,999,245,.808055E-4,.21E-5,0
QIANFAN-217,2026-153S,2026-07-21T13:19:32.284128,14.26768573,.00083848,88.9928,358.3118,162.2753,197.8735,0,U,69816,999,245,.32105621E-4,.92E-6,0
QIANFAN-218,2026-153T,2026-07-21T13:18:48.642624,14.26812339,.00081532,88.9930,358.3123,159.7536,200.3983,0,U,69817,999,245,.72930431E-4,.191E-5,0
CZ-6A R/B,2026-153U,2026-07-21T14:03:13.791456,14.53450920,.00868406,89.0171,358.2236,65.6747,295.3499,0,U,69818,999,250,.53841684E-4,.254E-5,0
STARLINK-37520,2026-154A,2026-07-21T13:55:17.444928,15.80922672,.00013022,53.1582,260.9542,78.5027,281.6142,0,U,69819,999,382,.85728878E-3,.172314E-2,0
STARLINK-37553,2026-154B,2026-07-21T13:54:12.264768,15.80961775,.00007555,53.1596,260.9499,344.2918,15.8081,0,U,69820,999,382,.10570923E-2,.214065E-2,0
STARLINK-37561,2026-154C,2026-07-21T13:53:07.323072,15.80976176,.00006812,53.1592,260.9440,339.0385,21.0610,0,U,69821,999,382,.72856217E-3,.14625E-2,0
STARLINK-37521,2026-154D,2026-07-21T13:52:03.177984,15.80926429,.00018774,53.1579,260.9380,74.8725,285.2506,0,U,69822,999,382,.94418703E-3,.190288E-2,0
STARLINK-37628,2026-154E,2026-07-21T13:50:58.050528,15.80916965,.00010096,53.1582,260.9329,84.8268,275.2870,0,U,69823,999,382,.72743909E-3,.145614E-2,0
STARLINK-37695,2026-154F,2026-07-21T13:40:58.253088,15.80893771,.00020279,53.1581,260.8864,64.8750,295.2483,0,U,69824,999,382,.52371251E-3,.104023E-2,0
STARLINK-37690,2026-154G,2026-07-21T13:48:48.531744,15.80923489,.00012082,53.1588,260.9239,61.4631,298.6513,0,U,69825,999,382,.84224947E-3,.169224E-2,0
STARLINK-37710,2026-154H,2026-07-21T13:47:43.522656,15.80956448,.00008995,53.1581,260.9178,107.0028,253.1093,0,U,69826,999,382,.10783511E-2,.218442E-2,0
STARLINK-38031,2026-154J,2026-07-21T13:46:38.936928,15.80916718,.00011252,53.1586,260.9135,70.5681,289.5463,0,U,69827,999,382,.87045522E-3,.174977E-2,0
STARLINK-38001,2026-154K,2026-07-21T13:45:33.728256,15.80955075,.00004152,53.1584,260.9078,72.3674,287.7394,0,U,69828,999,382,.10776718E-2,.218291E-2,0
STARLINK-37622,2026-154L,2026-07-21T13:44:29.160672,15.80936219,.00008993,53.1588,260.9027,81.6906,278.4218,0,U,69829,999,382,.93499216E-3,.188469E-2,0
STARLINK-37621,2026-154M,2026-07-21T13:43:24.294144,15.80931731,.00008266,53.1585,260.8975,91.7654,268.3463,0,U,69830,999,382,.65437771E-3,.130781E-2,0
STARLINK-37918,2026-154N,2026-07-21T13:42:19.708416,15.80917714,.00012552,53.1586,260.8927,82.0810,278.0356,0,U,69831,999,382,.820956E-3,.164799E-2,0
STARLINK-37887,2026-154P,2026-07-21T13:41:14.788320,15.80901280,.0001093,53.1586,260.8867,89.5264,270.5884,0,U,69832,999,382,.53202965E-3,.105738E-2,0
STARLINK-37624,2026-154Q,2026-07-21T15:11:11.958720,15.80919677,.00008689,53.1579,260.5649,87.5358,272.5764,0,U,69833,999,383,.61850132E-3,.123397E-2,0
STARLINK-37769,2026-154R,2026-07-21T15:10:06.869280,15.80924856,.00003462,53.1579,260.5596,104.1402,255.9659,0,U,69834,999,383,.94257942E-3,.189941E-2,0
STARLINK-37247,2026-154S,2026-07-21T15:09:02.283552,15.80940771,.00006575,53.1577,260.5546,83.2715,276.8383,0,U,69835,999,383,.80947133E-3,.162616E-2,0
STARLINK-37569,2026-154T,2026-07-21T13:36:55.572768,15.80939556,.00014499,53.1582,260.8672,66.8523,293.2652,0,U,69836,999,382,.1656757E-2,.340561E-2,0
STARLINK-37587,2026-154U,2026-07-21T15:06:52.706016,15.80937185,.00009905,53.1575,260.5442,101.7441,258.3693,0,U,69837,999,383,.83862444E-3,.168586E-2,0
STARLINK-37590,2026-154V,2026-07-21T15:05:47.983776,15.80905242,.0000678,53.1577,260.5397,84.2011,275.9089,0,U,69838,999,383,.4302878E-3,.85194E-3,0
