QIANFAN-210             
1 69809U 26153K   26202.57338061 -.02104282  00000+0 -11212+1 0  9991
2 69809  88.9925 358.3153 0014710 173.7647 186.3727 14.17626608  2457
QIANFAN-211             
1 69810U 26153L   26202.57263155  .00000077  00000+0  29324-4 0  9994
2 69810  88.9929 358.3145 0007906 157.1281 203.0263 14.20224166  2452
QIANFAN-212             
1 69811U 26153M   26202.56653117  .00000080  00000+0  30316-4 0  9992
2 69811  88.9931 358.3137 0009040 161.9335 198.2178 14.20819522  2457
QIANFAN-213             
1 69812U 26153N   26198.90858230 -.02004805  00000+0 -98228+0 0  9992
2 69812  88.9917 358.7338 0007827 155.5754 204.5809 14.21939575  1930
QIANFAN-214             
1 69813U 26153P   26202.55791826  .00000090  00000+0  32024-4 0  9992
2 69813  88.9929 358.3124 0008625 162.6131 197.5359 14.25492071  2456
QIANFAN-215             
1 69814U 26153Q   26202.55590888  .00000093  00000+0  32301-4 0  9999
2 69814  88.9928 358.3118 0008635 164.4954 195.6506 14.26680018  2457
QIANFAN-216             
1 69815U 26153R   26202.55589468  .00000210  00000+0  80806-4 0  9996
2 69815  88.9929 358.3121 0008870 164.7989 195.3473 14.26677160  2459
QIANFAN-217             
1 69816U 26153S   26202.55523477  .00000092  00000+0  32106-4 0  9993
2 69816  88.9928 358.3118 0008384 162.2753 197.8735 14.26768573  2454
QIANFAN-218             
1 69817U 26153T   26202.55472966  .00000191  00000+0  72930-4 0  9999
2 69817  88.9930 358.3123 0008153 159.7536 200.3983 14.26812339  2453
CZ-6A R/B               
1 69818U 26153U   26202.58557629  .00000254  00000+0  53842-4 0  9994
2 69818  89.0171 358.2236 0086840  65.6747 295.3499 14.53450920  2501
STARLINK-37520          
1 69819U 26154A   26202.58006302  .00172314  00000+0  85729-3 0  9998
2 69819  53.1582 260.9542 0001302  78.5027 281.6142 15.80922672  3821
STARLINK-37553          
1 69820U 26154B   26202.57930862  .00214065  00000+0  10571-2 0  9998
2 69820  53.1596 260.9499 0000755 344.2918  15.8081 15.80961775  3828
STARLINK-37561          
1 69821U 26154C   26202.57855698  .00146250  00000+0  72856-3 0  9997
2 69821  53.1592 260.9440 0000681 339.0385  21.0610 15.80976176  3827
STARLINK-37521          
1 69822U 26154D   26202.57781456  .00190288  00000+0  94419-3 0  9997
2 69822  53.1579 260.9380 0001877  74.8725 285.2506 15.80926429  3820
STARLINK-37628          
1 69823U 26154E   26202.57706077  .00145614  00000+0  72744-3 0  9994
2 69823  53.1582 260.9329 0001009  84.8268 275.2870 15.80916965  3825
STARLINK-37695          
1 69824U 26154F   26202.57011867  .00104023  00000+0  52371-3 0  9994
2 69824  53.1581 260.8864 0002027  64.8750 295.2483 15.80893771  3824
STARLINK-37690          
1 69825U 26154G   26202.57556171  .00169224  00000+0  84225-3 0  9994
2 69825  53.1588 260.9239 0001208  61.4631 298.6513 15.80923489  3821
STARLINK-37710          
1 69826U 26154H   26202.57480929  .00218442  00000+0  10784-2 0  9997
2 69826  53.1581 260.9178 0000899 107.0028 253.1093 15.80956448  3829
STARLINK-38031          
1 69827U 26154J   26202.57406177  .00174977  00000+0  87046-3 0  9991
2 69827  53.1586 260.9135 0001125  70.5681 289.5463 15.80916718  3820
STARLINK-38001          
1 69828U 26154K   26202.57330704  .00218291  00000+0  10777-2 0  9998
2 69828  53.1584 260.9078 0000415  72.3674 287.7394 15.80955075  3820
STARLINK-37622          
1 69829U 26154L   26202.57255973  .00188469  00000+0  93499-3 0  9999
2 69829  53.1588 260.9027 0000899  81.6906 278.4218 15.80936219  3827
STARLINK-37621          
1 69830U 26154M   26202.57180896  .00130781  00000+0  65438-3 0  9998
2 69830  53.1585 260.8975 0000826  91.7654 268.3463 15.80931731  3823
STARLINK-37918          
1 69831U 26154N   26202.57106144  .00164799  00000+0  82096-3 0  9998
2 69831  53.1586 260.8927 0001255  82.0810 278.0356 15.80917714  3820
STARLINK-37887          
1 69832U 26154P   26202.57031005  .00105738  00000+0  53203-3 0  9998
2 69832  53.1586 260.8867 0001093  89.5264 270.5884 15.80901280  3823
STARLINK-37624          
1 69833U 26154Q   26202.63277730  .00123397  00000+0  61850-3 0  9991
2 69833  53.1579 260.5649 0000868  87.5358 272.5764 15.80919677  3831
STARLINK-37769          
1 69834U 26154R   26202.63202395  .00189941  00000+0  94258-3 0  9992
2 69834  53.1579 260.5596 0000346 104.1402 255.9659 15.80924856  3833
STARLINK-37247          
1 69835U 26154S   26202.63127643  .00162616  00000+0  80947-3 0  9995
2 69835  53.1577 260.5546 0000657  83.2715 276.8383 15.80940771  3836
STARLINK-37569          
1 69836U 26154T   26202.56730987  .00340561  00000+0  16568-2 0  9993
2 69836  53.1582 260.8672 0001449  66.8523 293.2652 15.80939556  3820
STARLINK-37587          
1 69837U 26154U   26202.62977669  .00168586  00000+0  83862-3 0  9998
2 69837  53.1575 260.5442 0000990 101.7441 258.3693 15.80937185  3837
STARLINK-37590          
1 69838U 26154V   26202.62902759  .00085194  00000+0  43029-3 0  9991
2 69838  53.1577 260.5397 0000678  84.2011 275.9089 15.80905242  3833
